IRIDIUM 155             
1 43573U 18061E   25016.68452353  .00000459  00000+0  15669-3 0  9995
2 43573  86.3953 272.4992 0001920  94.1235 266.0180 14.34221401339324
IRIDIUM 154             
1 43574U 18061F   25017.15387020  .00000036  00000+0  56550-5 0  9994
2 43574  86.3954 272.4107 0001995  85.0750 275.0673 14.34218103339442
IRIDIUM 163             
1 43575U 18061G   25017.13484268  .00000097  00000+0  27399-4 0  9990
2 43575  86.3955 272.3507 0001938  84.7091 275.4326 14.34217925339415
IRIDIUM 156             
1 43576U 18061H   25016.69086163  .00000153  00000+0  47603-4 0  9996
2 43576  86.3955 272.5431 0002065  95.5995 264.5436 14.34218366339342
IRIDIUM 164             
1 43577U 18061J   25016.67183474  .00000398  00000+0  13509-3 0  9996
2 43577  86.3956 272.5830 0002278  81.9590 278.1865 14.34221584339380
IRIDIUM 159             
1 43578U 18061K   25016.70990448  .00000583  00000+0  20102-3 0  9991
2 43578  86.3954 272.5147 0002144  78.3494 281.7942 14.34219914339352
IRIDIUM 180             
1 43922U 19002A   25016.91870531  .00000148  00000+0  45895-4 0  9997
2 43922  86.3971 209.3131 0001892  91.3511 268.7901 14.34217452315033
IRIDIUM 176             
1 43923U 19002B   25017.01226724  .00000610  00000+0  92940-4 0  9996
2 43923  86.6099 209.2787 0001829  56.5985 303.5406 14.72240156323308
IRIDIUM 168             
1 43924U 19002C   25016.91234861  .00000143  00000+0  43948-4 0  9991
2 43924  86.3973 209.3784 0001997  86.0969 274.0455 14.34219152314970
IRIDIUM 173             
1 43925U 19002D   25016.48105321  .00000137  00000+0  41681-4 0  9997
2 43925  86.3969 209.4688 0001918  91.7237 268.4179 14.34219016314894
IRIDIUM 169             
1 43926U 19002E   25017.14844909  .00000549  00000+0  17284-3 0  9992
2 43926  86.4204 240.7958 0001178 143.9174 216.2104 14.38612063316034
IRIDIUM 172             
1 43927U 19002F   25016.47470729  .00000066  00000+0  16479-4 0  9993
2 43927  86.3971 209.4778 0001984  86.8302 273.3120 14.34218063314904
IRIDIUM 175             
1 43928U 19002G   25016.93894553  .00001903  00000+0  29782-3 0  9991
2 43928  86.1539 170.4370 0002530 119.3249 240.8221 14.72241061323286
IRIDIUM 171             
1 43929U 19002H   25016.45567755  .00000095  00000+0  26873-4 0  9990
2 43929  86.3979 209.7346 0002411  93.7172 266.4299 14.34217558314892
IRIDIUM 170             
1 43930U 19002J   25016.47468994  .00000558  00000+0  84683-4 0  9996
2 43930  86.6097 209.5086 0001977  89.3228 270.8216 14.72240268323238
IRIDIUM 167             
1 43931U 19002K   25016.93771846 -.00000001  00000+0 -75880-5 0  9996
2 43931  86.3975 209.3021 0002096 102.1714 257.9717 14.34217862314969
IRIDIUM 181             
1 56726U 23068S   25017.15712432  .00000892  00000+0  25916-3 0  9999
2 56726  86.4518 272.3395 0002650  89.4917 270.6588 14.43305172 88004
IRIDIUM 177             
1 56727U 23068T   25016.91392648  .00000865  00000+0  11043-3 0  9992
2 56727  86.1965 213.8707 0001918  82.8425 277.3014 14.80206726 89995
IRIDIUM 174             
1 56728U 23068U   25016.90848550  .00000817  00000+0  10399-3 0  9990
2 56728  86.1973 213.9942 0002444  84.6629 275.4871 14.80230608 89994
IRIDIUM 178             
1 56729U 23068V   25017.03826168  .00000057  00000+0  39859-5 0  9997
2 56729  86.5759 241.5106 0003009  80.3171 279.8390 14.80233186 90016
IRIDIUM 179             
1 56730U 23068W   25016.62721570  .00002001  00000+0  25973-3 0  9995
2 56730  86.6761 248.5083 0002301  89.0493 271.0992 14.80258960 89950
